[{"OBJECT_NAME":"STARLINK-5699","OBJECT_ID":"2023-015A","EPOCH":"2026-03-09T23:40:47.258976","MEAN_MOTION":15.02702947,"ECCENTRICITY":0.00012467,"INCLINATION":43.0033,"RA_OF_ASC_NODE":324.8108,"ARG_OF_PERICENTER":340.6338,"MEAN_ANOMALY":19.4457,"EPHEMERIS_TYPE":0,"CLASSIFICATION_TYPE":"U","NORAD_CAT_ID":55449,"ELEMENT_SET_NO":999,"REV_AT_EPOCH":17173,"BSTAR":0.0013324779,"MEAN_MOTION_DOT":0.00017922,"MEAN_MOTION_DDOT":0},{"OBJECT_NAME":"CZ-2F DEB","OBJECT_ID":"2026-024D","EPOCH":"2026-03-09T22:29:00.721824","MEAN_MOTION":15.26264439,"ECCENTRICITY":0.02293172,"INCLINATION":50.3196,"RA_OF_ASC_NODE":17.4686,"ARG_OF_PERICENTER":280.8979,"MEAN_ANOMALY":76.6257,"EPHEMERIS_TYPE":0,"CLASSIFICATION_TYPE":"U","NORAD_CAT_ID":67692,"ELEMENT_SET_NO":999,"REV_AT_EPOCH":466,"BSTAR":0.0047386771,"MEAN_MOTION_DOT":0.00280979,"MEAN_MOTION_DDOT":0}]
